start=new Date('2023-02-14T00:00:00.000Z').valueOf();
sats=[{"INCLINATION":"97.6539","OBJECT_ID":"2022-099AV","EPOCH":"2023-02-13T17:00:24.786144","REV_AT_EPOCH":"2819","APOAPSIS":"564.973","NORAD_CAT_ID":"53508","REF_FRAME":"TEME","CENTER_NAME":"EARTH","SEMIMAJOR_AXIS":"6941.137","TLE_LINE1":"1 53508U 22099AV  23044.70862021  .00000405  00000-0  36149-4 0  9998","GP_ID":"225337826","MEAN_ANOMALY":"103.8507","EPHEMERIS_TYPE":"0","CLASSIFICATION_TYPE":"U","MEAN_ELEMENT_THEORY":"SGP4","PERIAPSIS":"561.031","COUNTRY_CODE":"US","TIME_SYSTEM":"UTC","DECAY_DATE":null,"OBJECT_NAME":"STARLINK-4443","MEAN_MOTION_DOT":"0.00000405","ELEMENT_SET_NO":"999","TLE_LINE2":"2 53508  97.6539 167.5482 0002840 256.2402 103.8507 15.01263257 28196","ARG_OF_PERICENTER":"256.2402","PERIOD":"95.919","ECCENTRICITY":"0.00028400","BSTAR":"0.00003614900000","RA_OF_ASC_NODE":"167.5482","FILE":"3789756","SITE":"AFWTR","RCS_SIZE":"LARGE","MEAN_MOTION":"15.01263257","MEAN_MOTION_DDOT":"0.0000000000000","LAUNCH_DATE":"2022-08-12","OBJECT_TYPE":"PAYLOAD"},{"TLE_LINE2":"2 53509  97.6547 167.1428 0002058 244.1553 115.9459 15.01262843 27892","PERIOD":"95.919","ARG_OF_PERICENTER":"244.1553","OBJECT_NAME":"STARLINK-4402","MEAN_MOTION_DOT":"0.00001325","ELEMENT_SET_NO":"999","DECAY_DATE":null,"PERIAPSIS":"561.575","MEAN_ELEMENT_THEORY":"SGP4","CLASSIFICATION_TYPE":"U","TIME_SYSTEM":"UTC","COUNTRY_CODE":"US","MEAN_MOTION_DDOT":"0.0000000000000","RCS_SIZE":"LARGE","MEAN_MOTION":"15.01262843","OBJECT_TYPE":"PAYLOAD","LAUNCH_DATE":"2022-08-12","SITE":"AFWTR","FILE":"3789366","RA_OF_ASC_NODE":"167.1428","ECCENTRICITY":"0.00020580","BSTAR":"0.00010772000000","NORAD_CAT_ID":"53509","REF_FRAME":"TEME","EPOCH":"2023-02-13T07:14:13.608096","APOAPSIS":"564.432","REV_AT_EPOCH":"2789","INCLINATION":"97.6547","OBJECT_ID":"2022-099AW","MEAN_ANOMALY":"115.9459","EPHEMERIS_TYPE":"0","SEMIMAJOR_AXIS":"6941.138","CENTER_NAME":"EARTH","GP_ID":"225326891","TLE_LINE1":"1 53509U 22099AW  23044.30154639  .00001325  00000-0  10772-3 0  9999"},{"LAUNCH_DATE":"2022-08-12","OBJECT_TYPE":"PAYLOAD","RCS_SIZE":"LARGE","MEAN_MOTION":"15.01274550","MEAN_MOTION_DDOT":"0.0000000000000","FILE":"3789366","SITE":"AFWTR","RA_OF_ASC_NODE":"167.4076","BSTAR":"0.00086791000000","ECCENTRICITY":"0.00019540","PERIOD":"95.918","ARG_OF_PERICENTER":"264.3213","TLE_LINE2":"2 53510  97.6533 167.4076 0001954 264.3213  95.7788 15.01274550 27935","MEAN_MOTION_DOT":"0.00011111","ELEMENT_SET_NO":"999","OBJECT_NAME":"STARLINK-4441","DECAY_DATE":null,"COUNTRY_CODE":"US","TIME_SYSTEM":"UTC","MEAN_ELEMENT_THEORY":"SGP4","PERIAPSIS":"561.611","CLASSIFICATION_TYPE":"U","EPHEMERIS_TYPE":"0","MEAN_ANOMALY":"95.7788","GP_ID":"225328142","TLE_LINE1":"1 53510U 22099AX  23044.56976365  .00011111  00000-0  86791-3 0  9995","SEMIMAJOR_AXIS":"6941.102","CENTER_NAME":"EARTH","REF_FRAME":"TEME","NORAD_CAT_ID":"53510","APOAPSIS":"564.323","REV_AT_EPOCH":"2793","EPOCH":"2023-02-13T13:40:27.579360","OBJECT_ID":"2022-099AX","INCLINATION":"97.6533"},{"FILE":"3789578","SITE":"AFETR","RCS_SIZE":"LARGE","MEAN_MOTION":"15.08853377","MEAN_MOTION_DDOT":"0.0000000000000","OBJECT_TYPE":"PAYLOAD","LAUNCH_DATE":"2022-08-19","ECCENTRICITY":"0.00015800","BSTAR":"0.00066458000000","RA_OF_ASC_NODE":"62.7386","OBJECT_NAME":"STARLINK-4511","MEAN_MOTION_DOT":"0.00010308","ELEMENT_SET_NO":"999","TLE_LINE2":"2 53527  53.2171  62.7386 0001580  81.8515 278.2656 15.08853377 27054","PERIOD":"95.437","ARG_OF_PERICENTER":"81.8515","MEAN_ELEMENT_THEORY":"SGP4","PERIAPSIS":"538.611","CLASSIFICATION_TYPE":"U","TIME_SYSTEM":"UTC","COUNTRY_CODE":"US","DECAY_DATE":null,"CENTER_NAME":"EARTH","SEMIMAJOR_AXIS":"6917.840","GP_ID":"225332937","TLE_LINE1":"1 53527U 22101A   23044.52377783  .00010308  00000-0  66458-3 0  9997","MEAN_ANOMALY":"278.2656","EPHEMERIS_TYPE":"0","EPOCH":"2023-02-13T12:34:14.404512","REV_AT_EPOCH":"2705","APOAPSIS":"540.798","NORAD_CAT_ID":"53527","REF_FRAME":"TEME","OBJECT_ID":"2022-101A","INCLINATION":"53.2171"},{"TLE_LINE2":"2 53528  53.2169  63.0222 0001316  88.9462 271.1681 15.08846937 27044","PERIOD":"95.437","ARG_OF_PERICENTER":"88.9462","OBJECT_NAME":"STARLINK-4503","ELEMENT_SET_NO":"999","MEAN_MOTION_DOT":"0.00002611","DECAY_DATE":null,"MEAN_ELEMENT_THEORY":"SGP4","PERIAPSIS":"538.814","CLASSIFICATION_TYPE":"U","COUNTRY_CODE":"US","TIME_SYSTEM":"UTC","MEAN_MOTION_DDOT":"0.0000000000000","RCS_SIZE":"LARGE","MEAN_MOTION":"15.08846937","OBJECT_TYPE":"PAYLOAD","LAUNCH_DATE":"2022-08-19","SITE":"AFETR","FILE":"3789366","RA_OF_ASC_NODE":"63.0222","ECCENTRICITY":"0.00013160","BSTAR":"0.00018204000000","NORAD_CAT_ID":"53528","REF_FRAME":"TEME","EPOCH":"2023-02-13T11:04:09.029568","APOAPSIS":"540.635","REV_AT_EPOCH":"2704","OBJECT_ID":"2022-101B","INCLINATION":"53.2169","MEAN_ANOMALY":"271.1681","EPHEMERIS_TYPE":"0","SEMIMAJOR_AXIS":"6917.859","CENTER_NAME":"EARTH","GP_ID":"225328372","TLE_LINE1":"1 53528U 22101B   23044.46121562  .00002611  00000-0  18204-3 0  9997"},{"ARG_OF_PERICENTER":"90.2349","PERIOD":"95.436","TLE_LINE2":"2 53529  53.2175  62.7544 0001635  90.2349 269.8830 15.08864791 27058","MEAN_MOTION_DOT":"0.00028472","ELEMENT_SET_NO":"999","OBJECT_NAME":"STARLINK-4478","DECAY_DATE":null,"COUNTRY_CODE":"US","TIME_SYSTEM":"UTC","CLASSIFICATION_TYPE":"U","MEAN_ELEMENT_THEORY":"SGP4","PERIAPSIS":"538.539","LAUNCH_DATE":"2022-08-19","OBJECT_TYPE":"PAYLOAD","MEAN_MOTION":"15.08864791","RCS_SIZE":"LARGE","MEAN_MOTION_DDOT":"0.0000000000000","FILE":"3789366","SITE":"AFETR","RA_OF_ASC_NODE":"62.7544","BSTAR":"0.00179860000000","ECCENTRICITY":"0.00016350","REF_FRAME":"TEME","NORAD_CAT_ID":"53529","APOAPSIS":"540.801","REV_AT_EPOCH":"2705","EPOCH":"2023-02-13T12:28:56.260704","INCLINATION":"53.2175","OBJECT_ID":"2022-101C","EPHEMERIS_TYPE":"0","MEAN_ANOMALY":"269.8830","TLE_LINE1":"1 53529U 22101C   23044.52009561  .00028472  00000-0  17986-2 0  9997","GP_ID":"225326643","CENTER_NAME":"EARTH","SEMIMAJOR_AXIS":"6917.805"},{"APOAPSIS":"540.613","REV_AT_EPOCH":"2704","EPOCH":"2023-02-13T10:44:19.503744","REF_FRAME":"TEME","NORAD_CAT_ID":"53530","INCLINATION":"53.2168","OBJECT_ID":"2022-101D","GP_ID":"225326893","TLE_LINE1":"1 53530U 22101D   23044.44744796  .00002478  00000-0  17368-3 0  9999","CENTER_NAME":"EARTH","SEMIMAJOR_AXIS":"6917.839","EPHEMERIS_TYPE":"0","MEAN_ANOMALY":"268.0751","MEAN_MOTION_DOT":"0.00002478","ELEMENT_SET_NO":"999","OBJECT_NAME":"STARLINK-4482","PERIOD":"95.437","ARG_OF_PERICENTER":"92.0392","TLE_LINE2":"2 53530  53.2168  63.0795 0001314  92.0392 268.0751 15.08853639 27047","COUNTRY_CODE":"US","TIME_SYSTEM":"UTC","PERIAPSIS":"538.795","MEAN_ELEMENT_THEORY":"SGP4","CLASSIFICATION_TYPE":"U","DECAY_DATE":null,"SITE":"AFETR","FILE":"3789366","LAUNCH_DATE":"2022-08-19","OBJECT_TYPE":"PAYLOAD","RCS_SIZE":"LARGE","MEAN_MOTION_DDOT":"0.0000000000000","MEAN_MOTION":"15.08853639","BSTAR":"0.00017368000000","ECCENTRICITY":"0.00013140","RA_OF_ASC_NODE":"63.0795"},{"TLE_LINE1":"1 53531U 22101E   23044.78137881  .00015110  00000-0  96496-3 0  9994","GP_ID":"225333400","CENTER_NAME":"EARTH","SEMIMAJOR_AXIS":"6917.830","EPHEMERIS_TYPE":"0","MEAN_ANOMALY":"277.6988","INCLINATION":"53.2157","OBJECT_ID":"2022-101E","APOAPSIS":"540.815","REV_AT_EPOCH":"2709","EPOCH":"2023-02-13T18:45:11.129184","REF_FRAME":"TEME","NORAD_CAT_ID":"53531","BSTAR":"0.00096496000000","ECCENTRICITY":"0.00016200","RA_OF_ASC_NODE":"61.5818","FILE":"3789576","SITE":"AFETR","OBJECT_TYPE":"PAYLOAD","LAUNCH_DATE":"2022-08-19","MEAN_MOTION":"15.08856586","RCS_SIZE":"LARGE","MEAN_MOTION_DDOT":"0.0000000000000","TIME_SYSTEM":"UTC","COUNTRY_CODE":"US","CLASSIFICATION_TYPE":"U","MEAN_ELEMENT_THEORY":"SGP4","PERIAPSIS":"538.574","DECAY_DATE":null,"MEAN_MOTION_DOT":"0.00015110","ELEMENT_SET_NO":"999","OBJECT_NAME":"STARLINK-4487","ARG_OF_PERICENTER":"82.4188","PERIOD":"95.437","TLE_LINE2":"2 53531  53.2157  61.5818 0001620  82.4188 277.6988 15.08856586 27098"},{"NORAD_CAT_ID":"53532","REF_FRAME":"TEME","EPOCH":"2023-02-13T11:35:56.550624","REV_AT_EPOCH":"2705","APOAPSIS":"540.542","OBJECT_ID":"2022-101F","INCLINATION":"53.2166","MEAN_ANOMALY":"257.1896","EPHEMERIS_TYPE":"0","CENTER_NAME":"EARTH","SEMIMAJOR_AXIS":"6917.854","GP_ID":"225327873","TLE_LINE1":"1 53532U 22101F   23044.48329341  .00003197  00000-0  21882-3 0  9995","TLE_LINE2":"2 53532  53.2166  62.9271 0001189 102.9229 257.1896 15.08848544 27053","PERIOD":"95.437","ARG_OF_PERICENTER":"102.9229","OBJECT_NAME":"STARLINK-4483","ELEMENT_SET_NO":"999","MEAN_MOTION_DOT":"0.00003197","DECAY_DATE":null,"PERIAPSIS":"538.897","MEAN_ELEMENT_THEORY":"SGP4","CLASSIFICATION_TYPE":"U","COUNTRY_CODE":"US","TIME_SYSTEM":"UTC","MEAN_MOTION_DDOT":"0.0000000000000","RCS_SIZE":"LARGE","MEAN_MOTION":"15.08848544","OBJECT_TYPE":"PAYLOAD","LAUNCH_DATE":"2022-08-19","SITE":"AFETR","FILE":"3789366","RA_OF_ASC_NODE":"62.9271","ECCENTRICITY":"0.00011890","BSTAR":"0.00021882000000"},{"MEAN_ANOMALY":"279.1058","EPHEMERIS_TYPE":"0","SEMIMAJOR_AXIS":"6917.876","CENTER_NAME":"EARTH","GP_ID":"225327143","TLE_LINE1":"1 53533U 22101G   23044.48057568  .00006405  00000-0  42011-3 0  9997","INCLINATION":"53.2168","OBJECT_ID":"2022-101G","NORAD_CAT_ID":"53533","REF_FRAME":"TEME","EPOCH":"2023-02-13T11:32:01.738752","REV_AT_EPOCH":"2705","APOAPSIS":"540.875","RA_OF_ASC_NODE":"62.9397","ECCENTRICITY":"0.00016400","BSTAR":"0.00042011000000","MEAN_MOTION_DDOT":"0.0000000000000","RCS_SIZE":"LARGE","MEAN_MOTION":"15.08841530","LAUNCH_DATE":"2022-08-19","OBJECT_TYPE":"PAYLOAD","SITE":"AFETR","FILE":"3789366","DECAY_DATE":null,"MEAN_ELEMENT_THEORY":"SGP4","PERIAPSIS":"538.606","CLASSIFICATION_TYPE":"U","COUNTRY_CODE":"US","TIME_SYSTEM":"UTC","TLE_LINE2":"2 53533  53.2168  62.9397 0001640  81.0120 279.1058 15.08841530 27056","PERIOD":"95.437","ARG_OF_PERICENTER":"81.0120","OBJECT_NAME":"STARLINK-4493","ELEMENT_SET_NO":"999","MEAN_MOTION_DOT":"0.00006405"}];
